{
    "links": {
        "self": "http://www.neowsapp.com/rest/v1/neo/3441845?api_key=iIulBulltgU6a56xZRHN4H3l9WmuAYTsLGpBGhQ2"
    },
    "id": "3441845",
    "neo_reference_id": "3441845",
    "name": "(2008 YM2)",
    "designation": "2008 YM2",
    "nasa_jpl_url": "http://ssd.jpl.nasa.gov/sbdb.cgi?sstr=3441845",
    "absolute_magnitude_h": 24.0,
    "estimated_diameter": {
        "kilometers": {
            "estimated_diameter_min": 0.0421264611,
            "estimated_diameter_max": 0.0941976306
        },
        "meters": {
            "estimated_diameter_min": 42.1264610556,
            "estimated_diameter_max": 94.1976305719
        },
        "miles": {
            "estimated_diameter_min": 0.0261761612,
            "estimated_diameter_max": 0.0585316759
        },
        "feet": {
            "estimated_diameter_min": 138.2101784897,
            "estimated_diameter_max": 309.0473542854
        }
    },
    "is_potentially_hazardous_asteroid": false,
    "close_approach_data": [
        {
            "close_approach_date": "1913-01-18",
            "close_approach_date_full": "1913-Jan-18 17:21",
            "epoch_date_close_approach": -1797230340000,
            "relative_velocity": {
                "kilometers_per_second": "18.1853333175",
                "kilometers_per_hour": "65467.19994309",
                "miles_per_hour": "40678.7720979717"
            },
            "miss_distance": {
                "astronomical": "0.41402642",
                "lunar": "161.05627738",
                "kilometers": "61937470.5557254",
                "miles": "38486159.57639452"
            },
            "orbiting_body": "Earth"
        },
        {
            "close_approach_date": "2008-12-22",
            "close_approach_date_full": "2008-Dec-22 04:49",
            "epoch_date_close_approach": 1229921340000,
            "relative_velocity": {
                "kilometers_per_second": "7.8925283822",
                "kilometers_per_hour": "28413.102175915",
                "miles_per_hour": "17654.79673814"
            },
            "miss_distance": {
                "astronomical": "0.0933873288",
                "lunar": "36.3276709032",
                "kilometers": "13970545.473469656",
                "miles": "8680894.4187910128"
            },
            "orbiting_body": "Earth"
        },
        {
            "close_approach_date": "2105-01-24",
            "close_approach_date_full": "2105-Jan-24 06:34",
            "epoch_date_close_approach": 4262222040000,
            "relative_velocity": {
                "kilometers_per_second": "19.3534554469",
                "kilometers_per_hour": "69672.4396089494",
                "miles_per_hour": "43291.7444892386"
            },
            "miss_distance": {
                "astronomical": "0.4620329346",
                "lunar": "179.7308115594",
                "kilometers": "69119142.886009302",
                "miles": "42948643.8342882876"
            },
            "orbiting_body": "Earth"
        },
        {
            "close_approach_date": "2193-10-20",
            "close_approach_date_full": "2193-Oct-20 10:31",
            "epoch_date_close_approach": 7062546660000,
            "relative_velocity": {
                "kilometers_per_second": "20.1888030012",
                "kilometers_per_hour": "72679.6908041429",
                "miles_per_hour": "45160.3334332742"
            },
            "miss_distance": {
                "astronomical": "0.4773717323",
                "lunar": "185.6976038647",
                "kilometers": "71413794.350290201",
                "miles": "44374474.1375627338"
            },
            "orbiting_body": "Earth"
        },
        {
            "close_approach_date": "2200-12-24",
            "close_approach_date_full": "2200-Dec-24 05:38",
            "epoch_date_close_approach": 7288983480000,
            "relative_velocity": {
                "kilometers_per_second": "7.6212357414",
                "kilometers_per_hour": "27436.448668977",
                "miles_per_hour": "17047.9422298985"
            },
            "miss_distance": {
                "astronomical": "0.0738353079",
                "lunar": "28.7219347731",
                "kilometers": "11045604.792634173",
                "miles": "6863420.5571026674"
            },
            "orbiting_body": "Earth"
        }
    ],
    "orbital_data": {
        "orbit_id": "12",
        "orbit_determination_date": "2017-04-06 09:01:53",
        "first_observation_date": "2008-12-21",
        "last_observation_date": "2009-01-25",
        "data_arc_in_days": 35,
        "observations_used": 50,
        "orbit_uncertainty": "7",
        "minimum_orbit_intersection": ".0565171",
        "jupiter_tisserand_invariant": "3.346",
        "epoch_osculation": "2459000.5",
        "eccentricity": ".553163660335302",
        "semi_major_axis": "2.327555846987698",
        "inclination": "4.906148588818164",
        "ascending_node_longitude": "263.605426484061",
        "orbital_period": "1297.025731645769",
        "perihelion_distance": "1.040036535033149",
        "perihelion_argument": "171.7537707508565",
        "aphelion_distance": "3.615075158942247",
        "perihelion_time": "2458707.298978549956",
        "mean_anomaly": "81.38031894562528",
        "mean_motion": ".2775581017526949",
        "equinox": "J2000",
        "orbit_class": {
            "orbit_class_type": "AMO",
            "orbit_class_description": "Near-Earth asteroid orbits similar to that of 1221 Amor",
            "orbit_class_range": "1.017 AU < q (perihelion) < 1.3 AU"
        }
    },
    "is_sentry_object": false
}